FLOCK 4G-21             
1 62651U 25009AU  26068.19487675  .00013648  00000+0  49619-3 0  9998
2 62651  97.4032 151.1274 0000465 329.5782  30.5431 15.28381075 63677
STARLINK-34070          
1 63913U 25095Z   26068.33378323  .00030089  00000+0  10985-2 0  9991
2 63913  42.9995 178.1983 0001031 242.7740 117.3007 15.27579271 47725
